start=new Date('2023-01-09T00:00:00.000Z').valueOf();
sats=[{"MEAN_ANOMALY":"322.8703","EPHEMERIS_TYPE":"0","ELEMENT_SET_NO":"999","OBJECT_ID":"2020-025L","TLE_LINE1":"1 45541U 20025L   23008.71329419  .00000261  00000-0  36424-4 0  9999","REV_AT_EPOCH":"15085","INCLINATION":"53.0556","EPOCH":"2023-01-08T17:07:08.618016","MEAN_ELEMENT_THEORY":"SGP4","CLASSIFICATION_TYPE":"U","DECAY_DATE":null,"SEMIMAJOR_AXIS":"6925.368","RA_OF_ASC_NODE":"256.0100","RCS_SIZE":"LARGE","MEAN_MOTION_DDOT":"0.0000000000000","CENTER_NAME":"EARTH","OBJECT_NAME":"STARLINK-1369","GP_ID":"222495336","FILE":"3736460","BSTAR":"0.00003642400000","ECCENTRICITY":"0.00020000","PERIOD":"95.593","TLE_LINE2":"2 45541  53.0556 256.0100 0002000  37.2424 322.8703 15.06393694150853","LAUNCH_DATE":"2020-04-22","REF_FRAME":"TEME","TIME_SYSTEM":"UTC","PERIAPSIS":"545.848","COUNTRY_CODE":"US","MEAN_MOTION":"15.06393694","SITE":"AFETR","ARG_OF_PERICENTER":"37.2424","MEAN_MOTION_DOT":"0.00000261","OBJECT_TYPE":"PAYLOAD","NORAD_CAT_ID":"45541","APOAPSIS":"548.618"},{"MEAN_ANOMALY":"296.7070","EPHEMERIS_TYPE":"0","ELEMENT_SET_NO":"999","OBJECT_ID":"2020-025M","TLE_LINE1":"1 45542U 20025M   23008.94551851  .00005754  00000-0  40460-3 0  9998","REV_AT_EPOCH":"15089","INCLINATION":"53.0514","EPOCH":"2023-01-08T22:41:32.799264","MEAN_ELEMENT_THEORY":"SGP4","CLASSIFICATION_TYPE":"U","SEMIMAJOR_AXIS":"6925.282","DECAY_DATE":null,"RA_OF_ASC_NODE":"254.9658","RCS_SIZE":"LARGE","CENTER_NAME":"EARTH","MEAN_MOTION_DDOT":"0.0000000000000","GP_ID":"222495587","OBJECT_NAME":"STARLINK-1371","FILE":"3736460","BSTAR":"0.00040460000000","PERIOD":"95.591","ECCENTRICITY":"0.00017080","LAUNCH_DATE":"2020-04-22","TLE_LINE2":"2 45542  53.0514 254.9658 0001708  63.4093 296.7070 15.06421745150899","REF_FRAME":"TEME","TIME_SYSTEM":"UTC","PERIAPSIS":"545.964","COUNTRY_CODE":"US","MEAN_MOTION":"15.06421745","SITE":"AFETR","ARG_OF_PERICENTER":"63.4093","MEAN_MOTION_DOT":"0.00005754","OBJECT_TYPE":"PAYLOAD","NORAD_CAT_ID":"45542","APOAPSIS":"548.330"},{"EPOCH":"2023-01-08T09:14:46.273056","INCLINATION":"53.0517","REV_AT_EPOCH":"14990","ELEMENT_SET_NO":"999","OBJECT_ID":"2020-025N","TLE_LINE1":"1 45543U 20025N   23008.38525779  .00003535  00000-0  25601-3 0  9992","MEAN_ANOMALY":"283.6540","EPHEMERIS_TYPE":"0","LAUNCH_DATE":"2020-04-22","TLE_LINE2":"2 45543  53.0517 257.4750 0001559  76.4623 283.6540 15.06411764149908","ECCENTRICITY":"0.00015590","PERIOD":"95.591","BSTAR":"0.00025601000000","GP_ID":"222463353","FILE":"3736235","OBJECT_NAME":"STARLINK-1372","CENTER_NAME":"EARTH","MEAN_MOTION_DDOT":"0.0000000000000","RCS_SIZE":"LARGE","RA_OF_ASC_NODE":"257.4750","MEAN_ELEMENT_THEORY":"SGP4","CLASSIFICATION_TYPE":"U","DECAY_DATE":null,"SEMIMAJOR_AXIS":"6925.313","COUNTRY_CODE":"US","PERIAPSIS":"546.098","TIME_SYSTEM":"UTC","REF_FRAME":"TEME","MEAN_MOTION_DOT":"0.00003535","OBJECT_TYPE":"PAYLOAD","ARG_OF_PERICENTER":"76.4623","APOAPSIS":"548.257","NORAD_CAT_ID":"45543","SITE":"AFETR","MEAN_MOTION":"15.06411764"},{"REV_AT_EPOCH":"15089","INCLINATION":"53.0540","EPOCH":"2023-01-08T22:25:37.283520","EPHEMERIS_TYPE":"0","MEAN_ANOMALY":"294.9457","TLE_LINE1":"1 45544U 20025P   23008.93445930  .00003392  00000-0  24658-3 0  9996","ELEMENT_SET_NO":"999","OBJECT_ID":"2020-025P","GP_ID":"222494587","OBJECT_NAME":"STARLINK-1373","FILE":"3736460","BSTAR":"0.00024658000000","ECCENTRICITY":"0.00014840","PERIOD":"95.593","TLE_LINE2":"2 45544  53.0540 255.0151 0001484  65.1686 294.9457 15.06390528150891","LAUNCH_DATE":"2020-04-22","SEMIMAJOR_AXIS":"6925.378","DECAY_DATE":null,"CLASSIFICATION_TYPE":"U","MEAN_ELEMENT_THEORY":"SGP4","RA_OF_ASC_NODE":"255.0151","RCS_SIZE":"LARGE","CENTER_NAME":"EARTH","MEAN_MOTION_DDOT":"0.0000000000000","COUNTRY_CODE":"US","REF_FRAME":"TEME","TIME_SYSTEM":"UTC","PERIAPSIS":"546.215","SITE":"AFETR","NORAD_CAT_ID":"45544","APOAPSIS":"548.270","ARG_OF_PERICENTER":"65.1686","OBJECT_TYPE":"PAYLOAD","MEAN_MOTION_DOT":"0.00003392","MEAN_MOTION":"15.06390528"},{"CLASSIFICATION_TYPE":"U","MEAN_ELEMENT_THEORY":"SGP4","DECAY_DATE":null,"SEMIMAJOR_AXIS":"6925.307","RCS_SIZE":"LARGE","RA_OF_ASC_NODE":"254.9299","MEAN_MOTION_DDOT":"0.0000000000000","CENTER_NAME":"EARTH","FILE":"3736460","GP_ID":"222495836","OBJECT_NAME":"STARLINK-1374","BSTAR":"0.00208510000000","ECCENTRICITY":"0.00011460","PERIOD":"95.591","TLE_LINE2":"2 45545  53.0501 254.9299 0001146  88.8467 271.2653 15.06413422150877","LAUNCH_DATE":"2020-04-22","MEAN_ANOMALY":"271.2653","EPHEMERIS_TYPE":"0","OBJECT_ID":"2020-025Q","ELEMENT_SET_NO":"999","TLE_LINE1":"1 45545U 20025Q   23008.95289603  .00030924  00000-0  20851-2 0  9993","REV_AT_EPOCH":"15087","INCLINATION":"53.0501","EPOCH":"2023-01-08T22:52:10.216992","MEAN_MOTION":"15.06413422","SITE":"AFETR","ARG_OF_PERICENTER":"88.8467","MEAN_MOTION_DOT":"0.00030924","OBJECT_TYPE":"PAYLOAD","NORAD_CAT_ID":"45545","APOAPSIS":"547.966","REF_FRAME":"TEME","TIME_SYSTEM":"UTC","PERIAPSIS":"546.379","COUNTRY_CODE":"US"},{"MEAN_MOTION":"15.06388817","SITE":"AFETR","ARG_OF_PERICENTER":"68.0318","OBJECT_TYPE":"PAYLOAD","MEAN_MOTION_DOT":"0.00002240","NORAD_CAT_ID":"45546","APOAPSIS":"548.382","REF_FRAME":"TEME","TIME_SYSTEM":"UTC","PERIAPSIS":"546.113","COUNTRY_CODE":"US","MEAN_ELEMENT_THEORY":"SGP4","CLASSIFICATION_TYPE":"U","DECAY_DATE":null,"SEMIMAJOR_AXIS":"6925.383","RCS_SIZE":"LARGE","RA_OF_ASC_NODE":"258.7442","MEAN_MOTION_DDOT":"0.0000000000000","CENTER_NAME":"EARTH","GP_ID":"222462604","OBJECT_NAME":"STARLINK-1375","FILE":"3736235","BSTAR":"0.00016927000000","PERIOD":"95.593","ECCENTRICITY":"0.00016380","LAUNCH_DATE":"2020-04-22","TLE_LINE2":"2 45546  53.0515 258.7442 0001638  68.0318 292.0844 15.06388817150766","MEAN_ANOMALY":"292.0844","EPHEMERIS_TYPE":"0","ELEMENT_SET_NO":"999","OBJECT_ID":"2020-025R","TLE_LINE1":"1 45546U 20025R   23008.10143017  .00002240  00000-0  16927-3 0  9999","REV_AT_EPOCH":"15076","INCLINATION":"53.0515","EPOCH":"2023-01-08T02:26:03.566688"},{"APOAPSIS":"548.267","NORAD_CAT_ID":"45547","MEAN_MOTION_DOT":"0.00001612","OBJECT_TYPE":"PAYLOAD","ARG_OF_PERICENTER":"79.3817","SITE":"AFETR","MEAN_MOTION":"15.06395128","COUNTRY_CODE":"US","PERIAPSIS":"546.190","TIME_SYSTEM":"UTC","REF_FRAME":"TEME","TLE_LINE2":"2 45547  53.0515 254.9012 0001500  79.3817 280.7341 15.06395128150900","LAUNCH_DATE":"2020-04-22","ECCENTRICITY":"0.00015000","PERIOD":"95.592","BSTAR":"0.00012713000000","GP_ID":"222494837","FILE":"3736460","OBJECT_NAME":"STARLINK-1377","MEAN_MOTION_DDOT":"0.0000000000000","CENTER_NAME":"EARTH","RCS_SIZE":"LARGE","RA_OF_ASC_NODE":"254.9012","DECAY_DATE":null,"SEMIMAJOR_AXIS":"6925.363","MEAN_ELEMENT_THEORY":"SGP4","CLASSIFICATION_TYPE":"U","EPOCH":"2023-01-08T23:02:45.866976","INCLINATION":"53.0515","REV_AT_EPOCH":"15090","TLE_LINE1":"1 45547U 20025S   23008.96025309  .00001612  00000-0  12713-3 0  9998","ELEMENT_SET_NO":"999","OBJECT_ID":"2020-025S","EPHEMERIS_TYPE":"0","MEAN_ANOMALY":"280.7341"},{"LAUNCH_DATE":"2020-04-22","TLE_LINE2":"2 45548  53.0536 256.2635 0001556  57.9156 302.1984 15.06392796150842","ECCENTRICITY":"0.00015560","PERIOD":"95.593","BSTAR":"0.00024715000000","FILE":"3736460","GP_ID":"222495086","OBJECT_NAME":"STARLINK-1378","MEAN_MOTION_DDOT":"0.0000000000000","CENTER_NAME":"EARTH","RA_OF_ASC_NODE":"256.2635","RCS_SIZE":"LARGE","MEAN_ELEMENT_THEORY":"SGP4","CLASSIFICATION_TYPE":"U","SEMIMAJOR_AXIS":"6925.371","DECAY_DATE":null,"EPOCH":"2023-01-08T15:42:13.236768","INCLINATION":"53.0536","REV_AT_EPOCH":"15084","ELEMENT_SET_NO":"999","OBJECT_ID":"2020-025T","TLE_LINE1":"1 45548U 20025T   23008.65431987  .00003401  00000-0  24715-3 0  9991","MEAN_ANOMALY":"302.1984","EPHEMERIS_TYPE":"0","MEAN_MOTION_DOT":"0.00003401","OBJECT_TYPE":"PAYLOAD","ARG_OF_PERICENTER":"57.9156","APOAPSIS":"548.313","NORAD_CAT_ID":"45548","SITE":"AFETR","MEAN_MOTION":"15.06392796","COUNTRY_CODE":"US","PERIAPSIS":"546.158","TIME_SYSTEM":"UTC","REF_FRAME":"TEME"},{"REF_FRAME":"TEME","TIME_SYSTEM":"UTC","PERIAPSIS":"546.317","COUNTRY_CODE":"US","MEAN_MOTION":"15.06390945","SITE":"AFETR","ARG_OF_PERICENTER":"61.6201","OBJECT_TYPE":"PAYLOAD","MEAN_MOTION_DOT":"0.00002923","NORAD_CAT_ID":"45550","APOAPSIS":"548.166","MEAN_ANOMALY":"298.4923","EPHEMERIS_TYPE":"0","ELEMENT_SET_NO":"999","OBJECT_ID":"2020-025V","TLE_LINE1":"1 45550U 20025V   23008.93719817  .00002923  00000-0  21507-3 0  9990","REV_AT_EPOCH":"15088","INCLINATION":"53.0548","EPOCH":"2023-01-08T22:29:33.921888","CLASSIFICATION_TYPE":"U","MEAN_ELEMENT_THEORY":"SGP4","DECAY_DATE":null,"SEMIMAJOR_AXIS":"6925.376","RA_OF_ASC_NODE":"254.9865","RCS_SIZE":"LARGE","MEAN_MOTION_DDOT":"0.0000000000000","CENTER_NAME":"EARTH","FILE":"3736460","GP_ID":"222495337","OBJECT_NAME":"STARLINK-1390","BSTAR":"0.00021507000000","ECCENTRICITY":"0.00013350","PERIOD":"95.593","LAUNCH_DATE":"2020-04-22","TLE_LINE2":"2 45550  53.0548 254.9865 0001335  61.6201 298.4923 15.06390945150884"},{"FILE":"3736460","GP_ID":"222495588","OBJECT_NAME":"STARLINK-1294","BSTAR":"0.00033370000000","PERIOD":"95.592","ECCENTRICITY":"0.00014990","TLE_LINE2":"2 45551  53.0522 236.1881 0001499  74.0249 286.0905 15.06398359151137","LAUNCH_DATE":"2020-04-22","CLASSIFICATION_TYPE":"U","MEAN_ELEMENT_THEORY":"SGP4","DECAY_DATE":null,"SEMIMAJOR_AXIS":"6925.354","RCS_SIZE":"LARGE","RA_OF_ASC_NODE":"236.1881","MEAN_MOTION_DDOT":"0.0000000000000","CENTER_NAME":"EARTH","REV_AT_EPOCH":"15113","INCLINATION":"53.0522","EPOCH":"2023-01-08T16:11:25.283616","MEAN_ANOMALY":"286.0905","EPHEMERIS_TYPE":"0","ELEMENT_SET_NO":"999","OBJECT_ID":"2020-025W","TLE_LINE1":"1 45551U 20025W   23008.67459819  .00004692  00000-0  33370-3 0  9991","SITE":"AFETR","ARG_OF_PERICENTER":"74.0249","OBJECT_TYPE":"PAYLOAD","MEAN_MOTION_DOT":"0.00004692","NORAD_CAT_ID":"45551","APOAPSIS":"548.257","MEAN_MOTION":"15.06398359","COUNTRY_CODE":"US","REF_FRAME":"TEME","TIME_SYSTEM":"UTC","PERIAPSIS":"546.180"}];
